CCSDS_OMM_VERS,COMMENT,CREATION_DATE,ORIGINATOR,OBJECT_NAME,OBJECT_ID,CENTER_NAME,REF_FRAME,TIME_SYSTEM,MEAN_ELEMENT_THEORY,EPOCH,MEAN_MOTION,ECCENTRICITY,INCLINATION,RA_OF_ASC_NODE,ARG_OF_PERICENTER,MEAN_ANOMALY,EPHEMERIS_TYPE,CLASSIFICATION_TYPE,NORAD_CAT_ID,ELEMENT_SET_NO,REV_AT_EPOCH,BSTAR,MEAN_MOTION_DOT,MEAN_MOTION_DDOT,SEMIMAJOR_AXIS,PERIOD,APOAPSIS,PERIAPSIS,OBJECT_TYPE,RCS_SIZE,COUNTRY_CODE,LAUNCH_DATE,SITE,DECAY_DATE,FILE,GP_ID,TLE_LINE0,TLE_LINE1,TLE_LINE2
"2.0","GENERATED VIA SPACE-TRACK.ORG API","2020-06-17T01:18:51","18 SPCS","COSMOS 1867","1987-060A","EARTH","TEME","UTC","SGP4","2020-06-16T21:35:27.940416","14.31112247","0.00136240","65.0119","42.2825","270.3653","89.5870","0","U","18187","999","72056","-0.00000161560000","-0.00000104","0.0000000000000","7166.152","100.621","797.780","778.254","PAYLOAD","LARGE","CIS","1987-07-10","TTMTR","","2766909","155804768","0 COSMOS 1867","1 18187U 87060A   20168.89962894 -.00000104 +00000-0 -16156-5 0  9999","2 18187 065.0119 042.2825 0013624 270.3653 089.5870 14.31112247720567"
"2.0","GENERATED VIA SPACE-TRACK.ORG API","2020-06-17T01:18:51","18 SPCS","IRIDIUM 153","2017-083J","EARTH","TEME","UTC","SGP4","2020-06-16T20:45:24.125184","14.34217643","0.00028690","86.3968","126.2346","67.6952","292.4548","0","U","43078","999","13119","0.00001763000000","0.00000069","0.0000000000000","7155.804","100.403","779.722","775.616","PAYLOAD","LARGE","US","2017-12-23","AFWTR","","2766909","155818884","0 IRIDIUM 153","1 43078U 17083J   20168.86486256 +.00000069 +00000-0 +17630-4 0  9999","2 43078 086.3968 126.2346 0002869 067.6952 292.4548 14.34217643131192"
"2.0","GENERATED VIA SPACE-TRACK.ORG API","2020-06-16T19:05:01","18 SPCS","COSMOS 1867","1987-060A","EARTH","TEME","UTC","SGP4","2020-06-16T04:49:11.078688","14.31112252","0.00136230","65.0119","44.2382","270.3192","89.6331","0","U","18187","999","72046","0.00000064704000","-0.00000098","0.0000000000000","7166.152","100.621","797.779","778.254","PAYLOAD","LARGE","CIS","1987-07-10","TTMTR","","2766753","155783457","0 COSMOS 1867","1 18187U 87060A   20168.20082267 -.00000098 +00000-0 +64704-6 0  9995","2 18187 065.0119 044.2382 0013623 270.3192 089.6331 14.31112252720462"
"2.0","GENERATED VIA SPACE-TRACK.ORG API","2020-06-16T19:05:01","18 SPCS","IRIDIUM 153","2017-083J","EARTH","TEME","UTC","SGP4","2020-06-16T04:00:44.136000","14.34217524","0.00028990","86.3968","126.5261","68.3123","291.8381","0","U","43078","999","13109","0.00001744900000","0.00000069","0.0000000000000","7155.804","100.403","779.744","775.595","PAYLOAD","LARGE","US","2017-12-23","AFWTR","","2766753","155794835","0 IRIDIUM 153","1 43078U 17083J   20168.16717750 +.00000069 +00000-0 +17449-4 0  9996","2 43078 086.3968 126.5261 0002899 068.3123 291.8381 14.34217524131097"
"2.0","GENERATED VIA SPACE-TRACK.ORG API","2020-06-16T06:26:09","18 SPCS","COSMOS 1867","1987-060A","EARTH","TEME","UTC","SGP4","2020-06-16T01:27:55.708416","14.31112232","0.00136220","65.0119","44.6294","270.2976","89.6547","0","U","18187","999","72067","0.00000063091000","-0.00000099","0.0000000000000","7166.152","100.621","797.779","778.255","PAYLOAD","LARGE","CIS","1987-07-10","TTMTR","","2766338","155768595","0 COSMOS 1867","1 18187U 87060A   20168.06106144 -.00000099  00000-0  63091-6 0  9999","2 18187  65.0119  44.6294 0013622 270.2976  89.6547 14.31112232720676"
"2.0","GENERATED VIA SPACE-TRACK.ORG API","2020-06-16T01:54:10","18 SPCS","COSMOS 1867","1987-060A","EARTH","TEME","UTC","SGP4","2020-06-15T22:06:40.333824","14.31112244","0.00136250","65.0119","45.0206","270.2827","89.6696","0","U","18187","999","72042","0.00000173390000","-0.00000096","0.0000000000000","7166.152","100.621","797.781","778.253","PAYLOAD","LARGE","CIS","1987-07-10","TTMTR","","2766273","155750683","0 COSMOS 1867","1 18187U 87060A   20167.92130016 -.00000096 +00000-0 +17339-5 0  9998","2 18187 065.0119 045.0206 0013625 270.2827 089.6696 14.31112244720423"
"2.0","GENERATED VIA SPACE-TRACK.ORG API","2020-06-16T01:54:10","18 SPCS","IRIDIUM 153","2017-083J","EARTH","TEME","UTC","SGP4","2020-06-15T21:18:52.135488","14.34217536","0.00029100","86.3968","126.6427","68.5978","291.5528","0","U","43078","999","13105","0.00001904500000","0.00000073","0.0000000000000","7155.804","100.403","779.752","775.587","PAYLOAD","LARGE","US","2017-12-23","AFWTR","","2766273","155763636","0 IRIDIUM 153","1 43078U 17083J   20167.88810342 +.00000073 +00000-0 +19045-4 0  9994","2 43078 086.3968 126.6427 0002910 068.5978 291.5528 14.34217536131055"
"2.0","GENERATED VIA SPACE-TRACK.ORG API","2020-06-15T22:16:09","18 SPCS","IRIDIUM 153","2017-083J","EARTH","TEME","UTC","SGP4","2020-06-15T14:37:00.137568","14.34217497","0.00029220","86.3967","126.7593","68.8964","291.2544","0","U","43078","999","13101","0.00002016600000","0.00000076","0.0000000000000","7155.804","100.403","779.760","775.579","PAYLOAD","LARGE","US","2017-12-23","AFWTR","","2766096","155743446","0 IRIDIUM 153","1 43078U 17083J   20167.60902937  .00000076  00000-0  20166-4 0  9995","2 43078  86.3967 126.7593 0002922  68.8964 291.2544 14.34217497131017"
"2.0","GENERATED VIA SPACE-TRACK.ORG API","2020-06-15T20:15:50","18 SPCS","IRIDIUM 153","2017-083J","EARTH","TEME","UTC","SGP4","2020-06-15T11:16:04.137312","14.34217494","0.00029260","86.3967","126.8177","68.9736","291.1772","0","U","43078","999","13099","0.00002061100000","0.00000078","0.0000000000000","7155.805","100.403","779.763","775.576","PAYLOAD","LARGE","US","2017-12-23","AFWTR","","2766062","155718993","0 IRIDIUM 153","1 43078U 17083J   20167.46949233 +.00000078 +00000-0 +20611-4 0  9996","2 43078 086.3967 126.8177 0002926 068.9736 291.1772 14.34217494130993"
"2.0","GENERATED VIA SPACE-TRACK.ORG API","2020-06-15T20:15:50","18 SPCS","COSMOS 1867","1987-060A","EARTH","TEME","UTC","SGP4","2020-06-15T08:41:38.844096","14.31112250","0.00136260","65.0120","46.5851","270.2709","89.6813","0","U","18187","999","72034","0.00000463410000","-0.00000088","0.0000000000000","7166.152","100.621","797.782","778.252","PAYLOAD","LARGE","CIS","1987-07-10","TTMTR","","2766062","155707271","0 COSMOS 1867","1 18187U 87060A   20167.36225514 -.00000088 +00000-0 +46341-5 0  9990","2 18187 065.0120 046.5851 0013626 270.2709 089.6813 14.31112250720346"
"2.0","GENERATED VIA SPACE-TRACK.ORG API","2020-06-15T06:26:09","18 SPCS","COSMOS 1867","1987-060A","EARTH","TEME","UTC","SGP4","2020-06-14T22:37:52.726368","14.31112231","0.00136280","65.0120","47.7586","270.1993","89.7529","0","U","18187","999","72051","0.00000591460000","-0.00000085","0.0000000000000","7166.152","100.621","797.783","778.251","PAYLOAD","LARGE","CIS","1987-07-10","TTMTR","","2765629","155691745","0 COSMOS 1867","1 18187U 87060A   20166.94297137 -.00000085  00000-0  59146-5 0  9997","2 18187  65.0120  47.7586 0013628 270.1993  89.7529 14.31112231720513"
"2.0","GENERATED VIA SPACE-TRACK.ORG API","2020-06-15T02:23:21","18 SPCS","COSMOS 1867","1987-060A","EARTH","TEME","UTC","SGP4","2020-06-14T20:57:15.038208","14.31112239","0.00136270","65.0120","47.9541","270.1798","89.7724","0","U","18187","999","72027","0.00000590670000","-0.00000085","0.0000000000000","7166.152","100.621","797.782","778.252","PAYLOAD","LARGE","CIS","1987-07-10","TTMTR","","2765584","155675732","0 COSMOS 1867","1 18187U 87060A   20166.87309072 -.00000085 +00000-0 +59067-5 0  9993","2 18187 065.0120 047.9541 0013627 270.1798 089.7724 14.31112239720276"
"2.0","GENERATED VIA SPACE-TRACK.ORG API","2020-06-15T02:23:21","18 SPCS","IRIDIUM 153","2017-083J","EARTH","TEME","UTC","SGP4","2020-06-14T20:11:52.139616","14.34217398","0.00029430","86.3967","127.0801","69.4270","290.7242","0","U","43078","999","13090","0.00002080300000","0.00000078","0.0000000000000","7155.805","100.403","779.776","775.564","PAYLOAD","LARGE","US","2017-12-23","AFWTR","","2765584","155687626","0 IRIDIUM 153","1 43078U 17083J   20166.84157569 +.00000078 +00000-0 +20803-4 0  9993","2 43078 086.3967 127.0801 0002943 069.4270 290.7242 14.34217398130909"
"2.0","GENERATED VIA SPACE-TRACK.ORG API","2020-06-14T22:16:09","18 SPCS","IRIDIUM 153","2017-083J","EARTH","TEME","UTC","SGP4","2020-06-14T11:49:32.135520","14.34217375","0.00029540","86.3966","127.2258","69.7702","290.3812","0","U","43078","999","13085","0.00002242600000","0.00000083","0.0000000000000","7155.805","100.403","779.784","775.556","PAYLOAD","LARGE","US","2017-12-23","AFWTR","","2765430","155667024","0 IRIDIUM 153","1 43078U 17083J   20166.49273305  .00000083  00000-0  22426-4 0  9990","2 43078  86.3966 127.2258 0002954  69.7702 290.3812 14.34217375130859"
"2.0","GENERATED VIA SPACE-TRACK.ORG API","2020-06-14T16:27:11","18 SPCS","COSMOS 1867","1987-060A","EARTH","TEME","UTC","SGP4","2020-06-14T04:10:58.170432","14.31112243","0.00136300","65.0121","49.9098","270.1369","89.8153","0","U","18187","999","72017","0.00000899730000","-0.00000076","0.0000000000000","7166.152","100.621","797.784","778.249","PAYLOAD","LARGE","CIS","1987-07-10","TTMTR","","2765335","155651333","0 COSMOS 1867","1 18187U 87060A   20166.17428438 -.00000076 +00000-0 +89973-5 0  9993","2 18187 065.0121 049.9098 0013630 270.1369 089.8153 14.31112243720175"
"2.0","GENERATED VIA SPACE-TRACK.ORG API","2020-06-14T16:27:11","18 SPCS","IRIDIUM 153","2017-083J","EARTH","TEME","UTC","SGP4","2020-06-14T03:27:12.137472","14.34217277","0.00029670","86.3966","127.3716","70.0279","290.1236","0","U","43078","999","13080","0.00002012700000","0.00000076","0.0000000000000","7155.805","100.403","779.793","775.547","PAYLOAD","LARGE","US","2017-12-23","AFWTR","","2765335","155662529","0 IRIDIUM 153","1 43078U 17083J   20166.14389048 +.00000076 +00000-0 +20127-4 0  9992","2 43078 086.3966 127.3716 0002967 070.0279 290.1236 14.34217277130801"
